ORBCOMM FM115           
1 41186U 15081H   25163.88274603  .00000509  00000+0  13375-3 0  9995
2 41186  46.9994  60.0281 0000757 355.4531   4.6349 14.62495730507149
ORBCOMM FM108           
1 41187U 15081J   25163.92213291  .00000712  00000+0  18949-3 0  9995
2 41187  47.0037 127.1123 0003563 294.6973  65.3541 14.58165062506179
ORBCOMM FM117           
1 41188U 15081K   25163.95692184  .00000284  00000+0  97768-4 0  9992
2 41188  47.0001 125.7116 0004027 301.5466  58.5026 14.58143910506224
ORBCOMM FM116           
1 41189U 15081L   25163.53447175  .00000395  00000+0  12133-3 0  9990
2 41189  47.0011 217.5553 0001671 164.8294 195.2642 14.58171556504972
